{
  "type": "FeatureCollection",
  "features": [
    {
      "type": "Feature",
      "properties": {
        "norad_id": 28890,
        "name": "BEIJING 1",
        "group": "dmc",
        "lat": -65.14238618379336,
        "lon": -73.27342885654356,
        "alt_km": 697.633647609402,
        "timestamp": "2025-12-23T11:34:47.848248+00:00",
        "meta_object_name": "BEIJING 1",
        "meta_object_id": "2005-043A",
        "meta_epoch": "2025-12-23T05:32:07.765152",
        "meta_mean_motion": 14.63374399,
        "meta_eccentricity": 0.0015786,
        "meta_inclination": 98.2664,
        "meta_ra_of_asc_node": 124.7629,
        "meta_arg_of_pericenter": 110.4025,
        "meta_mean_anomaly": 249.8874,
        "meta_ephemeris_type": 0,
        "meta_classification_type": "U",
        "meta_norad_cat_id": 28890,
        "meta_element_set_no": 999,
        "meta_rev_at_epoch": 7491,
        "meta_bstar": 4.1541e-05,
        "meta_mean_motion_dot": 1.66e-06,
        "meta_mean_motion_ddot": 0,
        "tle_line1": "1 28890U 05043A   25357.23064543  .00000166  00000+0  41541-4 0  9999",
        "tle_line2": "2 28890  98.2664 124.7629 0015786 110.4025 249.8874 14.63374399 74917"
      },
      "geometry": {
        "type": "Point",
        "coordinates": [
          -73.27342885654356,
          -65.14238618379336
        ]
      }
    },
    {
      "type": "Feature",
      "properties": {
        "norad_id": 33320,
        "name": "HUANJING 1A (HJ-1A)",
        "group": "dmc",
        "lat": -32.83450902315436,
        "lon": -9.6888610929884,
        "alt_km": 613.3749733627692,
        "timestamp": "2025-12-23T11:34:47.848274+00:00",
        "meta_object_name": "HUANJING 1A (HJ-1A)",
        "meta_object_id": "2008-041A",
        "meta_epoch": "2025-12-23T05:15:11.380608",
        "meta_mean_motion": 14.83426663,
        "meta_eccentricity": 0.0019377,
        "meta_inclination": 97.6543,
        "meta_ra_of_asc_node": 345.0799,
        "meta_arg_of_pericenter": 1.2882,
        "meta_mean_anomaly": 358.8379,
        "meta_ephemeris_type": 0,
        "meta_classification_type": "U",
        "meta_norad_cat_id": 33320,
        "meta_element_set_no": 999,
        "meta_rev_at_epoch": 93231,
        "meta_bstar": 0.00022497,
        "meta_mean_motion_dot": 1.802e-05,
        "meta_mean_motion_ddot": 0,
        "tle_line1": "1 33320U 08041A   25357.21888172  .00001802  00000+0  22497-3 0  9990",
        "tle_line2": "2 33320  97.6543 345.0799 0019377   1.2882 358.8379 14.83426663932316"
      },
      "geometry": {
        "type": "Point",
        "coordinates": [
          -9.6888610929884,
          -32.83450902315436
        ]
      }
    },
    {
      "type": "Feature",
      "properties": {
        "norad_id": 33321,
        "name": "HUANJING 1B (HJ-1B)",
        "group": "dmc",
        "lat": 13.505345842024376,
        "lon": 170.84878628697655,
        "alt_km": 636.4519911879379,
        "timestamp": "2025-12-23T11:34:47.848286+00:00",
        "meta_object_name": "HUANJING 1B (HJ-1B)",
        "meta_object_id": "2008-041B",
        "meta_epoch": "2025-12-23T04:21:26.953344",
        "meta_mean_motion": 14.8284551,
        "meta_eccentricity": 0.0037869,
        "meta_inclination": 97.64,
        "meta_ra_of_asc_node": 348.7137,
        "meta_arg_of_pericenter": 42.648,
        "meta_mean_anomaly": 317.7663,
        "meta_ephemeris_type": 0,
        "meta_classification_type": "U",
        "meta_norad_cat_id": 33321,
        "meta_element_set_no": 999,
        "meta_rev_at_epoch": 93232,
        "meta_bstar": 0.00011478,
        "meta_mean_motion_dot": 8.89e-06,
        "meta_mean_motion_ddot": 0,
        "tle_line1": "1 33321U 08041B   25357.18156196  .00000889  00000+0  11478-3 0  9992",
        "tle_line2": "2 33321  97.6400 348.7137 0037869  42.6480 317.7663 14.82845510932320"
      },
      "geometry": {
        "type": "Point",
        "coordinates": [
          170.84878628697655,
          13.505345842024376
        ]
      }
    },
    {
      "type": "Feature",
      "properties": {
        "norad_id": 33446,
        "name": "YAOGAN-4",
        "group": "dmc",
        "lat": 70.87476713297772,
        "lon": -96.19039482614821,
        "alt_km": 621.587129272224,
        "timestamp": "2025-12-23T11:34:47.848298+00:00",
        "meta_object_name": "YAOGAN-4",
        "meta_object_id": "2008-061A",
        "meta_epoch": "2025-12-23T01:32:09.118752",
        "meta_mean_motion": 14.8271129,
        "meta_eccentricity": 0.0013034,
        "meta_inclination": 97.9196,
        "meta_ra_of_asc_node": 287.0625,
        "meta_arg_of_pericenter": 286.8036,
        "meta_mean_anomaly": 73.1747,
        "meta_ephemeris_type": 0,
        "meta_classification_type": "U",
        "meta_norad_cat_id": 33446,
        "meta_element_set_no": 999,
        "meta_rev_at_epoch": 91956,
        "meta_bstar": 0.00017044,
        "meta_mean_motion_dot": 1.323e-05,
        "meta_mean_motion_ddot": 0,
        "tle_line1": "1 33446U 08061A   25357.06399443  .00001323  00000+0  17044-3 0  9992",
        "tle_line2": "2 33446  97.9196 287.0625 0013034 286.8036  73.1747 14.82711290919561"
      },
      "geometry": {
        "type": "Point",
        "coordinates": [
          -96.19039482614821,
          70.87476713297772
        ]
      }
    },
    {
      "type": "Feature",
      "properties": {
        "norad_id": 35681,
        "name": "DEIMOS-1",
        "group": "dmc",
        "lat": -79.80726627855374,
        "lon": -71.35075035630508,
        "alt_km": 654.2735920960122,
        "timestamp": "2025-12-23T11:34:47.848308+00:00",
        "meta_object_name": "DEIMOS-1",
        "meta_object_id": "2009-041A",
        "meta_epoch": "2025-12-23T05:30:19.046304",
        "meta_mean_motion": 14.74968137,
        "meta_eccentricity": 0.0002544,
        "meta_inclination": 97.7151,
        "meta_ra_of_asc_node": 157.3447,
        "meta_arg_of_pericenter": 63.1057,
        "meta_mean_anomaly": 297.0412,
        "meta_ephemeris_type": 0,
        "meta_classification_type": "U",
        "meta_norad_cat_id": 35681,
        "meta_element_set_no": 999,
        "meta_rev_at_epoch": 88094,
        "meta_bstar": 0.00014093,
        "meta_mean_motion_dot": 9e-06,
        "meta_mean_motion_ddot": 0,
        "tle_line1": "1 35681U 09041A   25357.22938711  .00000900  00000+0  14093-3 0  9990",
        "tle_line2": "2 35681  97.7151 157.3447 0002544  63.1057 297.0412 14.74968137880947"
      },
      "geometry": {
        "type": "Point",
        "coordinates": [
          -71.35075035630508,
          -79.80726627855374
        ]
      }
    },
    {
      "type": "Feature",
      "properties": {
        "norad_id": 35683,
        "name": "UK-DMC 2",
        "group": "dmc",
        "lat": -54.82241099688053,
        "lon": 143.38050709766566,
        "alt_km": 651.0735364066777,
        "timestamp": "2025-12-23T11:34:47.848318+00:00",
        "meta_object_name": "UK-DMC 2",
        "meta_object_id": "2009-041C",
        "meta_epoch": "2025-12-23T05:19:19.073856",
        "meta_mean_motion": 14.75642999,
        "meta_eccentricity": 0.0001549,
        "meta_inclination": 97.857,
        "meta_ra_of_asc_node": 131.8289,
        "meta_arg_of_pericenter": 93.2812,
        "meta_mean_anomaly": 266.8575,
        "meta_ephemeris_type": 0,
        "meta_classification_type": "U",
        "meta_norad_cat_id": 35683,
        "meta_element_set_no": 999,
        "meta_rev_at_epoch": 88061,
        "meta_bstar": 0.00017313,
        "meta_mean_motion_dot": 1.133e-05,
        "meta_mean_motion_ddot": 0,
        "tle_line1": "1 35683U 09041C   25357.22174854  .00001133  00000+0  17313-3 0  9999",
        "tle_line2": "2 35683  97.8570 131.8289 0001549  93.2812 266.8575 14.75642999880617"
      },
      "geometry": {
        "type": "Point",
        "coordinates": [
          143.38050709766566,
          -54.82241099688053
        ]
      }
    },
    {
      "type": "Feature",
      "properties": {
        "norad_id": 40715,
        "name": "DMC3-FM1",
        "group": "dmc",
        "lat": 12.203086050483329,
        "lon": -137.386617239671,
        "alt_km": 613.6800450246583,
        "timestamp": "2025-12-23T11:34:47.848328+00:00",
        "meta_object_name": "DMC3-FM1",
        "meta_object_id": "2015-032A",
        "meta_epoch": "2025-12-23T05:03:29.002176",
        "meta_mean_motion": 14.85459812,
        "meta_eccentricity": 0.0004034,
        "meta_inclination": 97.6685,
        "meta_ra_of_asc_node": 224.0214,
        "meta_arg_of_pericenter": 278.7155,
        "meta_mean_anomaly": 81.3604,
        "meta_ephemeris_type": 0,
        "meta_classification_type": "U",
        "meta_norad_cat_id": 40715,
        "meta_element_set_no": 999,
        "meta_rev_at_epoch": 56378,
        "meta_bstar": 0.000161,
        "meta_mean_motion_dot": 1.337e-05,
        "meta_mean_motion_ddot": 0,
        "tle_line1": "1 40715U 15032A   25357.21075234  .00001337  00000+0  16100-3 0  9998",
        "tle_line2": "2 40715  97.6685 224.0214 0004034 278.7155  81.3604 14.85459812563789"
      },
      "geometry": {
        "type": "Point",
        "coordinates": [
          -137.386617239671,
          12.203086050483329
        ]
      }
    },
    {
      "type": "Feature",
      "properties": {
        "norad_id": 40716,
        "name": "DMC3-FM2",
        "group": "dmc",
        "lat": -70.68863860515538,
        "lon": 23.103341721980716,
        "alt_km": 616.6868259820576,
        "timestamp": "2025-12-23T11:34:47.848338+00:00",
        "meta_object_name": "DMC3-FM2",
        "meta_object_id": "2015-032B",
        "meta_epoch": "2025-12-23T03:58:51.627648",
        "meta_mean_motion": 14.8545745,
        "meta_eccentricity": 0.0004677,
        "meta_inclination": 97.6743,
        "meta_ra_of_asc_node": 225.4293,
        "meta_arg_of_pericenter": 285.6446,
        "meta_mean_anomaly": 74.4253,
        "meta_ephemeris_type": 0,
        "meta_classification_type": "U",
        "meta_norad_cat_id": 40716,
        "meta_element_set_no": 999,
        "meta_rev_at_epoch": 56377,
        "meta_bstar": 4.2652e-05,
        "meta_mean_motion_dot": 3.16e-06,
        "meta_mean_motion_ddot": 0,
        "tle_line1": "1 40716U 15032B   25357.16587532  .00000316  00000+0  42652-4 0  9990",
        "tle_line2": "2 40716  97.6743 225.4293 0004677 285.6446  74.4253 14.85457450563778"
      },
      "geometry": {
        "type": "Point",
        "coordinates": [
          23.103341721980716,
          -70.68863860515538
        ]
      }
    },
    {
      "type": "Feature",
      "properties": {
        "norad_id": 40717,
        "name": "DMC3-FM3",
        "group": "dmc",
        "lat": 43.30084357374161,
        "lon": 54.680109573914535,
        "alt_km": 611.0544091045231,
        "timestamp": "2025-12-23T11:34:47.848347+00:00",
        "meta_object_name": "DMC3-FM3",
        "meta_object_id": "2015-032C",
        "meta_epoch": "2025-12-23T04:30:07.876224",
        "meta_mean_motion": 14.85443189,
        "meta_eccentricity": 0.0004056,
        "meta_inclination": 97.6795,
        "meta_ra_of_asc_node": 227.0903,
        "meta_arg_of_pericenter": 286.2756,
        "meta_mean_anomaly": 73.8013,
        "meta_ephemeris_type": 0,
        "meta_classification_type": "U",
        "meta_norad_cat_id": 40717,
        "meta_element_set_no": 999,
        "meta_rev_at_epoch": 56378,
        "meta_bstar": 7.4995e-05,
        "meta_mean_motion_dot": 5.95e-06,
        "meta_mean_motion_ddot": 0,
        "tle_line1": "1 40717U 15032C   25357.18759116  .00000595  00000+0  74995-4 0  9996",
        "tle_line2": "2 40717  97.6795 227.0903 0004056 286.2756  73.8013 14.85443189563786"
      },
      "geometry": {
        "type": "Point",
        "coordinates": [
          54.680109573914535,
          43.30084357374161
        ]
      }
    }
  ]
}